[{"OBJECT_NAME":"YAOGAN-43 01D","OBJECT_ID":"2024-148D","EPOCH":"2026-03-09T10:27:16.254720","MEAN_MOTION":15.28369377,"ECCENTRICITY":0.00025569,"INCLINATION":35.001,"RA_OF_ASC_NODE":61.7102,"ARG_OF_PERICENTER":326.2473,"MEAN_ANOMALY":33.808,"EPHEMERIS_TYPE":0,"CLASSIFICATION_TYPE":"U","NORAD_CAT_ID":60461,"ELEMENT_SET_NO":999,"REV_AT_EPOCH":8700,"BSTAR":0.00037765912,"MEAN_MOTION_DOT":0.00010676,"MEAN_MOTION_DDOT":0},{"OBJECT_NAME":"STARLINK-34222","OBJECT_ID":"2025-113X","EPOCH":"2026-03-09T10:35:20.123232","MEAN_MOTION":15.30196643,"ECCENTRICITY":0.00013369,"INCLINATION":53.1598,"RA_OF_ASC_NODE":92.5258,"ARG_OF_PERICENTER":80.5572,"MEAN_ANOMALY":279.558,"EPHEMERIS_TYPE":0,"CLASSIFICATION_TYPE":"U","NORAD_CAT_ID":64191,"ELEMENT_SET_NO":999,"REV_AT_EPOCH":4498,"BSTAR":0.00093844969,"MEAN_MOTION_DOT":0.00027535,"MEAN_MOTION_DDOT":0}]
